[{"OBJECT_NAME":"ONEWEB-0520","OBJECT_ID":"2022-138AB","EPOCH":"2026-03-19T05:04:01.604352","MEAN_MOTION":13.19725784,"ECCENTRICITY":0.00018862,"INCLINATION":87.9219,"RA_OF_ASC_NODE":322.8961,"ARG_OF_PERICENTER":89.3783,"MEAN_ANOMALY":270.7566,"EPHEMERIS_TYPE":0,"CLASSIFICATION_TYPE":"U","NORAD_CAT_ID":54138,"ELEMENT_SET_NO":999,"REV_AT_EPOCH":16495,"BSTAR":-1.2573582e-5,"MEAN_MOTION_DOT":8.0e-8,"MEAN_MOTION_DDOT":0},{"OBJECT_NAME":"ONEWEB-0521","OBJECT_ID":"2022-138AC","EPOCH":"2026-03-19T04:02:36.731616","MEAN_MOTION":13.1972501,"ECCENTRICITY":0.00015218,"INCLINATION":87.9227,"RA_OF_ASC_NODE":322.8887,"ARG_OF_PERICENTER":79.5301,"MEAN_ANOMALY":280.6003,"EPHEMERIS_TYPE":0,"CLASSIFICATION_TYPE":"U","NORAD_CAT_ID":54139,"ELEMENT_SET_NO":999,"REV_AT_EPOCH":16489,"BSTAR":0.00011058557,"MEAN_MOTION_DOT":5.7e-7,"MEAN_MOTION_DDOT":0},{"OBJECT_NAME":"ONEWEB-0522","OBJECT_ID":"2022-138AD","EPOCH":"2026-03-19T05:22:12.612576","MEAN_MOTION":13.19726363,"ECCENTRICITY":0.00017296,"INCLINATION":87.9228,"RA_OF_ASC_NODE":322.8784,"ARG_OF_PERICENTER":88.6157,"MEAN_ANOMALY":271.5174,"EPHEMERIS_TYPE":0,"CLASSIFICATION_TYPE":"U","NORAD_CAT_ID":54140,"ELEMENT_SET_NO":999,"REV_AT_EPOCH":16494,"BSTAR":0.00066892834,"MEAN_MOTION_DOT":2.81e-6,"MEAN_MOTION_DDOT":0},{"OBJECT_NAME":"ONEWEB-0523","OBJECT_ID":"2022-138AE","EPOCH":"2026-03-19T02:34:19.276320","MEAN_MOTION":13.2077118,"ECCENTRICITY":0.00015575,"INCLINATION":87.9158,"RA_OF_ASC_NODE":292.4266,"ARG_OF_PERICENTER":59.8657,"MEAN_ANOMALY":300.263,"EPHEMERIS_TYPE":0,"CLASSIFICATION_TYPE":"U","NORAD_CAT_ID":54141,"ELEMENT_SET_NO":999,"REV_AT_EPOCH":16741,"BSTAR":4.7093199e-5,"MEAN_MOTION_DOT":3.2e-7,"MEAN_MOTION_DDOT":0},{"OBJECT_NAME":"ONEWEB-0524","OBJECT_ID":"2022-138AF","EPOCH":"2026-03-19T02:18:25.146432","MEAN_MOTION":13.2077082,"ECCENTRICITY":0.00023659,"INCLINATION":87.9153,"RA_OF_ASC_NODE":292.4273,"ARG_OF_PERICENTER":70.2703,"MEAN_ANOMALY":289.8686,"EPHEMERIS_TYPE":0,"CLASSIFICATION_TYPE":"U","NORAD_CAT_ID":54142,"ELEMENT_SET_NO":999,"REV_AT_EPOCH":16741,"BSTAR":0.00012897307,"MEAN_MOTION_DOT":6.5e-7,"MEAN_MOTION_DDOT":0},{"OBJECT_NAME":"ONEWEB-0525","OBJECT_ID":"2022-138AG","EPOCH":"2026-03-19T05:49:30.917280","MEAN_MOTION":13.19725257,"ECCENTRICITY":0.00018643,"INCLINATION":87.9217,"RA_OF_ASC_NODE":322.8894,"ARG_OF_PERICENTER":88.6721,"MEAN_ANOMALY":271.4626,"EPHEMERIS_TYPE":0,"CLASSIFICATION_TYPE":"U","NORAD_CAT_ID":54143,"ELEMENT_SET_NO":999,"REV_AT_EPOCH":16496,"BSTAR":0.0002777384,"MEAN_MOTION_DOT":1.24e-6,"MEAN_MOTION_DDOT":0},{"OBJECT_NAME":"ONEWEB-0526","OBJECT_ID":"2022-138AH","EPOCH":"2026-03-19T04:48:05.617728","MEAN_MOTION":13.19725834,"ECCENTRICITY":0.00018179,"INCLINATION":87.9225,"RA_OF_ASC_NODE":322.8933,"ARG_OF_PERICENTER":83.1913,"MEAN_ANOMALY":276.9426,"EPHEMERIS_TYPE":0,"CLASSIFICATION_TYPE":"U","NORAD_CAT_ID":54144,"ELEMENT_SET_NO":999,"REV_AT_EPOCH":16493,"BSTAR":0.00010144788,"MEAN_MOTION_DOT":5.4e-7,"MEAN_MOTION_DDOT":0},{"OBJECT_NAME":"ONEWEB-0529","OBJECT_ID":"2022-138AJ","EPOCH":"2026-03-19T04:52:39.211968","MEAN_MOTION":13.19725174,"ECCENTRICITY":0.0001897,"INCLINATION":87.9219,"RA_OF_ASC_NODE":322.91,"ARG_OF_PERICENTER":88.2906,"MEAN_ANOMALY":271.8444,"EPHEMERIS_TYPE":0,"CLASSIFICATION_TYPE":"U","NORAD_CAT_ID":54145,"ELEMENT_SET_NO":999,"REV_AT_EPOCH":16495,"BSTAR":-3.677183e-5,"MEAN_MOTION_DOT":-2.0e-8,"MEAN_MOTION_DDOT":0},{"OBJECT_NAME":"ONEWEB-0531","OBJECT_ID":"2022-138AK","EPOCH":"2026-03-19T03:47:02.911776","MEAN_MOTION":13.20770778,"ECCENTRICITY":0.00019217,"INCLINATION":87.9158,"RA_OF_ASC_NODE":292.413,"ARG_OF_PERICENTER":59.0079,"MEAN_ANOMALY":301.1242,"EPHEMERIS_TYPE":0,"CLASSIFICATION_TYPE":"U","NORAD_CAT_ID":54146,"ELEMENT_SET_NO":999,"REV_AT_EPOCH":16742,"BSTAR":0.00023527775,"MEAN_MOTION_DOT":1.09e-6,"MEAN_MOTION_DDOT":0},{"OBJECT_NAME":"ONEWEB-0535","OBJECT_ID":"2022-138AL","EPOCH":"2026-03-19T05:40:24.980736","MEAN_MOTION":13.19725383,"ECCENTRICITY":0.00015403,"INCLINATION":87.9225,"RA_OF_ASC_NODE":322.8803,"ARG_OF_PERICENTER":70.4236,"MEAN_ANOMALY":289.7063,"EPHEMERIS_TYPE":0,"CLASSIFICATION_TYPE":"U","NORAD_CAT_ID":54147,"ELEMENT_SET_NO":999,"REV_AT_EPOCH":16497,"BSTAR":0.0001568128,"MEAN_MOTION_DOT":7.6e-7,"MEAN_MOTION_DDOT":0},{"OBJECT_NAME":"ONEWEB-0536","OBJECT_ID":"2022-138AM","EPOCH":"2026-03-19T07:07:02.878176","MEAN_MOTION":13.20770968,"ECCENTRICITY":0.00020596,"INCLINATION":87.9144,"RA_OF_ASC_NODE":292.4186,"ARG_OF_PERICENTER":58.0896,"MEAN_ANOMALY":302.0437,"EPHEMERIS_TYPE":0,"CLASSIFICATION_TYPE":"U","NORAD_CAT_ID":54148,"ELEMENT_SET_NO":999,"REV_AT_EPOCH":16743,"BSTAR":0.00020386795,"MEAN_MOTION_DOT":9.6e-7,"MEAN_MOTION_DDOT":0},{"OBJECT_NAME":"ONEWEB-0527","OBJECT_ID":"2022-166A","EPOCH":"2026-03-19T05:50:30.566112","MEAN_MOTION":13.21826689,"ECCENTRICITY":0.00017533,"INCLINATION":87.9162,"RA_OF_ASC_NODE":261.9272,"ARG_OF_PERICENTER":93.2076,"MEAN_ANOMALY":266.9258,"EPHEMERIS_TYPE":0,"CLASSIFICATION_TYPE":"U","NORAD_CAT_ID":54642,"ELEMENT_SET_NO":999,"REV_AT_EPOCH":15965,"BSTAR":2.2445426e-5,"MEAN_MOTION_DOT":2.2e-7,"MEAN_MOTION_DDOT":0},{"OBJECT_NAME":"ONEWEB-0528","OBJECT_ID":"2022-166B","EPOCH":"2026-03-19T05:59:59.128224","MEAN_MOTION":13.21825668,"ECCENTRICITY":0.00017528,"INCLINATION":87.9163,"RA_OF_ASC_NODE":261.9299,"ARG_OF_PERICENTER":94.5689,"MEAN_ANOMALY":265.5646,"EPHEMERIS_TYPE":0,"CLASSIFICATION_TYPE":"U","NORAD_CAT_ID":54643,"ELEMENT_SET_NO":999,"REV_AT_EPOCH":15966,"BSTAR":0.00017264314,"MEAN_MOTION_DOT":8.4e-7,"MEAN_MOTION_DDOT":0},{"OBJECT_NAME":"ONEWEB-0539","OBJECT_ID":"2022-166C","EPOCH":"2026-03-19T05:05:28.713696","MEAN_MOTION":13.21827529,"ECCENTRICITY":0.00016093,"INCLINATION":87.9166,"RA_OF_ASC_NODE":261.9036,"ARG_OF_PERICENTER":101.0684,"MEAN_ANOMALY":259.0631,"EPHEMERIS_TYPE":0,"CLASSIFICATION_TYPE":"U","NORAD_CAT_ID":54644,"ELEMENT_SET_NO":999,"REV_AT_EPOCH":15965,"BSTAR":0.00028663161,"MEAN_MOTION_DOT":1.31e-6,"MEAN_MOTION_DDOT":0},{"OBJECT_NAME":"ONEWEB-0540","OBJECT_ID":"2022-166D","EPOCH":"2026-03-19T05:15:09.897120","MEAN_MOTION":13.21825073,"ECCENTRICITY":0.00015503,"INCLINATION":87.9163,"RA_OF_ASC_NODE":261.938,"ARG_OF_PERICENTER":95.4203,"MEAN_ANOMALY":264.7108,"EPHEMERIS_TYPE":0,"CLASSIFICATION_TYPE":"U","NORAD_CAT_ID":54645,"ELEMENT_SET_NO":999,"REV_AT_EPOCH":15964,"BSTAR":5.1816183e-5,"MEAN_MOTION_DOT":3.4e-7,"MEAN_MOTION_DDOT":0},{"OBJECT_NAME":"ONEWEB-0542","OBJECT_ID":"2022-166E","EPOCH":"2026-03-19T05:19:42.100320","MEAN_MOTION":13.21825405,"ECCENTRICITY":0.00013862,"INCLINATION":87.9171,"RA_OF_ASC_NODE":261.8982,"ARG_OF_PERICENTER":100.856,"MEAN_ANOMALY":259.273,"EPHEMERIS_TYPE":0,"CLASSIFICATION_TYPE":"U","NORAD_CAT_ID":54646,"ELEMENT_SET_NO":999,"REV_AT_EPOCH":15965,"BSTAR":0.00014984343,"MEAN_MOTION_DOT":7.5e-7,"MEAN_MOTION_DDOT":0}]
