ONEWEB-0520             
1 54138U 22138AB  26078.21112968  .00000008  00000+0 -12574-4 0  9991
2 54138  87.9219 322.8961 0001886  89.3783 270.7566 13.19725784164956
ONEWEB-0521             
1 54139U 22138AC  26078.16848069  .00000057  00000+0  11059-3 0  9993
2 54139  87.9227 322.8887 0001521  79.5301 280.6003 13.19725010164897
ONEWEB-0522             
1 54140U 22138AD  26078.22375709  .00000281  00000+0  66893-3 0  9993
2 54140  87.9228 322.8784 0001729  88.6157 271.5174 13.19726363164942
ONEWEB-0523             
1 54141U 22138AE  26078.10716755  .00000032  00000+0  47093-4 0  9997
2 54141  87.9158 292.4266 0001557  59.8657 300.2630 13.20771180167417
ONEWEB-0524             
1 54142U 22138AF  26078.09612438  .00000065  00000+0  12897-3 0  9998
2 54142  87.9153 292.4273 0002365  70.2703 289.8686 13.20770820167411
ONEWEB-0525             
1 54143U 22138AG  26078.24271895  .00000124  00000+0  27774-3 0  9990
2 54143  87.9217 322.8894 0001864  88.6721 271.4626 13.19725257164966
ONEWEB-0526             
1 54144U 22138AH  26078.20006502  .00000054  00000+0  10145-3 0  9994
2 54144  87.9225 322.8933 0001817  83.1913 276.9426 13.19725834164937
ONEWEB-0529             
1 54145U 22138AJ  26078.20323162 -.00000002  00000+0 -36772-4 0  9999
2 54145  87.9219 322.9100 0001897  88.2906 271.8444 13.19725174164957
ONEWEB-0531             
1 54146U 22138AK  26078.15767259  .00000109  00000+0  23528-3 0  9993
2 54146  87.9158 292.4130 0001921  59.0079 301.1242 13.20770778167429
ONEWEB-0535             
1 54147U 22138AL  26078.23640024  .00000076  00000+0  15681-3 0  9997
2 54147  87.9225 322.8803 0001540  70.4236 289.7063 13.19725383164978
ONEWEB-0536             
1 54148U 22138AM  26078.29656109  .00000096  00000+0  20387-3 0  9996
2 54148  87.9144 292.4186 0002059  58.0896 302.0437 13.20770968167434
ONEWEB-0527             
1 54642U 22166A   26078.24340933  .00000022  00000+0  22445-4 0  9993
2 54642  87.9162 261.9272 0001753  93.2076 266.9258 13.21826689159658
ONEWEB-0528             
1 54643U 22166B   26078.24998991  .00000084  00000+0  17264-3 0  9997
2 54643  87.9163 261.9299 0001752  94.5689 265.5646 13.21825668159665
ONEWEB-0539             
1 54644U 22166C   26078.21213789  .00000131  00000+0  28663-3 0  9998
2 54644  87.9166 261.9036 0001609 101.0684 259.0631 13.21827529159657
ONEWEB-0540             
1 54645U 22166D   26078.21886455  .00000034  00000+0  51816-4 0  9994
2 54645  87.9163 261.9380 0001550  95.4203 264.7108 13.21825073159648
ONEWEB-0542             
1 54646U 22166E   26078.22201505  .00000075  00000+0  14984-3 0  9992
2 54646  87.9171 261.8982 0001386 100.8560 259.2730 13.21825405159659
